2022-058A               
1 52785U 22058A   22178.55569253  .00001574  00000+0  20238-3 0  9998
2 52785  49.9966 142.5613 0012248  22.0327 338.1136 14.86429304  3781
2022-058B               
1 52786U 22058B   22178.55376712  .00000659  00000+0  99780-4 0  9997
2 52786  50.0021 142.5604 0012157  24.9222 335.2300 14.86526354  3763
2022-058C               
1 52787U 22058C   22178.55238011  .00001616  00000+0  20604-3 0  9999
2 52787  49.9915 142.5279 0012756  25.0393 335.1158 14.86623535  3766
2022-058D               
1 52788U 22058D   22178.54985618  .00001599  00000+0  20355-3 0  9994
2 52788  50.0065 142.5468 0012991  27.7410 332.4217 14.86772694  3763
2022-058E               
1 52789U 22058E   22178.54774061  .00000823  00000+0  11714-3 0  9991
2 52789  49.9902 142.4955 0014131  28.3554 331.8143 14.86878361  3764
2022-058F               
1 52790U 22058F   22178.54320510  .00001296  00000+0  16843-3 0  9992
2 52790  50.0076 142.5073 0014256  33.0847 327.0988 14.87152358  3765
2022-058G               
1 52791U 22058G   22178.54070370  .00001649  00000+0  20636-3 0  9996
2 52791  49.9917 142.4539 0015282  34.1785 326.0131 14.87308853  3768
2022-058H               
1 52792U 22058H   22178.53718458  .00000943  00000+0  12865-3 0  9993
2 52792  49.9964 142.4422 0016218  35.6705 324.5310 14.87502977  3765
2022-058J               
1 52793U 22058J   22178.53506335  .00001390  00000+0  17672-3 0  9991
2 52793  50.0015 142.4398 0016430  37.6497 322.5592 14.87630472  3799
CZ-2C R/B               
1 52794U 22058K   22178.21229756  .00001847  00000+0  11443-3 0  9993
2 52794  50.1764 140.3796 0103904 139.0300 221.8517 15.10834912  3761
PROGRESS-MS 20          
1 52795U 22059A   22177.48556043  .00004792  00000+0  92857-4 0  9996
2 52795  51.6408 290.5389 0004209 292.6783 162.0142 15.49692718346621
SHENZHOU 14             
1 52797U 22060A   22177.34460465  .00011910  00000+0  14403-3 0  9997
2 52797  41.4702 163.2352 0003584 330.1935  11.5182 15.60536804 66194
NILESAT 301             
1 52817U 22061A   22178.60813376 -.00000074  00000+0  00000+0 0  9998
2 52817   0.0271 324.9189 0000617 257.2494 262.2008  1.00272938   202
FALCON 9 R/B            
1 52818U 22061B   22177.74648497  .00000688  00000+0  88909-3 0  9991
2 52818  18.7083  40.2407 7695385 188.2282 140.4740  1.75871268   313
STARLINK-4091           
1 52830U 22062A   22178.25001157 -.00760993  00000+0 -37946-2 0  9997
2 52830  53.2176 356.9715 0005462  46.3668 120.5752 15.83001845  2043
STARLINK-4089           
1 52831U 22062B   22178.25001157 -.00760697  00000+0 -37983-2 0  9990
2 52831  53.2176 356.9746 0005679  46.2758 119.5823 15.82969140  2044
STARLINK-4083           
1 52832U 22062C   22178.25001157 -.00760911  00000+0 -37993-2 0  9991
2 52832  53.2176 356.9731 0005068  43.6375 122.6042 15.82979154  2029
STARLINK-4086           
1 52833U 22062D   22178.25001157 -.00761066  00000+0 -37977-2 0  9996
2 52833  53.2176 356.9731 0005186  44.0053 122.5780 15.82990972  1544
STARLINK-4108           
1 52834U 22062E   22178.25001157 -.00761156  00000+0 -37935-2 0  9991
2 52834  53.2176 356.9711 0005454  45.9045 121.3939 15.83012977  1546
STARLINK-4080           
1 52835U 22062F   22178.25001157 -.00761299  00000+0 -37914-2 0  9997
2 52835  53.2176 356.9712 0005773  47.4428 120.2124 15.83024018  1547
STARLINK-4043           
1 52836U 22062G   22178.25001157 -.00761475  00000+0 -37920-2 0  9991
2 52836  53.2176 356.9696 0005212  45.2968 122.7309 15.83034473  1540
STARLINK-4036           
1 52837U 22062H   22178.25001157 -.00761964  00000+0 -37892-2 0  9993
2 52837  53.2176 356.9681 0005000  42.6281 126.4687 15.83067742  1544
STARLINK-4092           
1 52838U 22062J   22178.25001157 -.00761394  00000+0 -37876-2 0  9993
2 52838  53.2176 356.9690 0005909  49.4668 118.9077 15.83045795  2024
STARLINK-4048           
1 52839U 22062K   22178.25001157 -.00762319  00000+0 -37865-2 0  9990
2 52839  53.2176 356.9666 0005233  43.2416 126.5627 15.83089991  2023
STARLINK-4049           
1 52840U 22062L   22178.25001157 -.00762098  00000+0 -37879-2 0  9991
2 52840  53.2176 356.9670 0004987  43.3341 126.1108 15.83079175  2026
STARLINK-4065           
1 52841U 22062M   22178.25001157 -.00762609  00000+0 -37810-2 0  9995
2 52841  53.2176 356.9646 0005632  46.3166 124.5518 15.83123213  2026
STARLINK-4046           
1 52842U 22062N   22178.25001157 -.00761945  00000+0 -37916-2 0  9995
2 52842  53.2176 356.9684 0004800  41.6564 127.0853 15.83056701  2022
STARLINK-4188           
1 52843U 22062P   22178.25001157 -.00762686  00000+0 -37776-2 0  9993
2 52843  53.2176 356.9631 0005464  47.1306 124.4092 15.83146963  2023
STARLINK-4208           
1 52844U 22062Q   22178.25001157 -.00762026  00000+0 -37812-2 0  9993
2 52844  53.2176 356.9657 0005831  48.7098 121.4342 15.83101550  2023
STARLINK-4168           
1 52845U 22062R   22178.25001157 -.00762986  00000+0 -37771-2 0  9993
2 52845  53.2176 356.9626 0005527  46.1550 125.7467 15.83157769  2025
STARLINK-4212           
1 52846U 22062S   22178.25001157 -.00762762  00000+0 -37807-2 0  9996
2 52846  53.2176 356.9639 0005217  43.6922 127.5008 15.83135707  2020
STARLINK-4206           
1 52847U 22062T   22178.25001157 -.00763440  00000+0 -37766-2 0  9995
2 52847  53.2176 356.9613 0005111  42.7865 129.8160 15.83180335  2023
STARLINK-4202           
1 52848U 22062U   22178.25001157 -.00762453  00000+0 -37814-2 0  9993
2 52848  53.2176 356.9651 0005824  47.2049 123.2822 15.83113335  2020
STARLINK-4197           
1 52849U 22062V   22178.25001157 -.00763281  00000+0 -37713-2 0  9992
2 52849  53.2176 356.9599 0005336  46.7317 126.5872 15.83201739  2029
STARLINK-4187           
1 52850U 22062W   22178.25001157 -.00763054  00000+0 -37752-2 0  9995
2 52850  53.2176 356.9617 0005604  46.2593 125.9872 15.83169196  2024
STARLINK-3809           
1 52851U 22062X   22178.25001157 -.00763706  00000+0 -37718-2 0  9992
2 52851  53.2176 356.9594 0005254  43.6223 130.0513 15.83212873  2021
STARLINK-4184           
1 52852U 22062Y   22178.25001157 -.00763553  00000+0 -37743-2 0  9991
2 52852  53.2176 356.9604 0005445  44.5325 128.4181 15.83191559  2028
STARLINK-4189           
1 52853U 22062Z   22178.25001157 -.00764005  00000+0 -37675-2 0  9999
2 52853  53.2176 356.9579 0005901  46.7055 127.6526 15.83235851  2029
STARLINK-4204           
1 52854U 22062AA  22178.25001157 -.00763863  00000+0 -37703-2 0  9993
2 52854  53.2176 356.9583 0005332  44.7659 129.2423 15.83224762  2024
STARLINK-4209           
1 52855U 22062AB  22178.25001157 -.00764168  00000+0 -37614-2 0  9994
2 52855  53.2176 356.9559 0006226  49.2788 126.1212 15.83269456  2025
STARLINK-4201           
1 52856U 22062AC  22178.25001157 -.00764101  00000+0 -37671-2 0  9995
2 52856  53.2176 356.9568 0005501  45.5664 129.1392 15.83247138  2028
STARLINK-4199           
1 52857U 22062AD  22178.25001157 -.00764613  00000+0 -37624-2 0  9992
2 52857  53.2176 356.9545 0005360  45.3307 130.7945 15.83290735  2022
STARLINK-4198           
1 52858U 22062AE  22178.25001157 -.00764022  00000+0 -37618-2 0  9990
2 52858  53.2176 356.9563 0006486  50.1677 124.8768 15.83258542  2024
STARLINK-4196           
1 52859U 22062AF  22178.25001157 -.00764712  00000+0 -37581-2 0  9996
2 52859  53.2176 356.9538 0006332  49.5647 126.8955 15.83302346  2028
STARLINK-4191           
1 52860U 22062AG  22178.25001157 -.00764468  00000+0 -37638-2 0  9999
2 52860  53.2176 356.9548 0005336  44.7842 131.0057 15.83278966  2029
STARLINK-4112           
1 52861U 22062AH  22178.25001157 -.00765496  00000+0 -37543-2 0  9997
2 52861  53.2176 356.9504 0005638  46.3026 131.9021 15.83358010  2028
STARLINK-4010           
1 52862U 22062AJ  22178.25001157 -.00764975  00000+0 -37611-2 0  9995
2 52862  53.2176 356.9527 0005064  43.2619 133.5596 15.83313152  2024
STARLINK-4270           
1 52863U 22062AK  22178.25001157 -.00765180  00000+0 -37580-2 0  9990
2 52863  53.2176 356.9518 0005096  44.0216 133.4810 15.83336061  2024
STARLINK-4267           
1 52864U 22062AL  22178.25001157 -.00765036  00000+0 -37577-2 0  9997
2 52864  53.2176 356.9520 0005710  46.2041 130.9649 15.83324199  2022
STARLINK-4274           
1 52865U 22062AM  22178.25001157 -.00765707  00000+0 -37510-2 0  9990
2 52865  53.2176 356.9490 0005775  47.0347 131.8561 15.83380586  2023
STARLINK-4272           
1 52866U 22062AN  22178.25001157 -.00765247  00000+0 -37552-2 0  9996
2 52866  53.2176 356.9507 0005537  46.7765 131.0742 15.83347111  2029
STARLINK-4126           
1 52867U 22062AP  22178.25001157 -.00765980  00000+0 -37483-2 0  9994
2 52867  53.2176 356.9476 0005864  46.8695 132.7257 15.83402366  2024
STARLINK-4261           
1 52868U 22062AQ  22178.25001157 -.00765586  00000+0 -37519-2 0  9997
2 52868  53.2176 356.9493 0005939  47.7011 130.8450 15.83369350  2028
STARLINK-4266           
1 52869U 22062AR  22178.25001157 -.00766061  00000+0 -37477-2 0  9990
2 52869  53.2176 356.9470 0005535  45.9994 133.9481 15.83413244  2026
STARLINK-4195           
1 52870U 22062AS  22178.25001157 -.00766040  00000+0 -37510-2 0  9997
2 52870  53.2176 356.9480 0005736  45.9047 133.3476 15.83391094  2027
STARLINK-4207           
1 52871U 22062AT  22178.25001157 -.00766575  00000+0 -37441-2 0  9994
2 52871  53.2176 356.9450 0005648  46.1751 134.8044 15.83446909  2025
STARLINK-4213           
1 52872U 22062AU  22178.25001157 -.00766335  00000+0 -37470-2 0  9991
2 52872  53.2176 356.9459 0005607  45.8646 134.4343 15.83424194  2029
STARLINK-4211           
1 52873U 22062AV  22178.25001157 -.00766758  00000+0 -37415-2 0  9990
2 52873  53.2176 356.9436 0005592  45.9252 135.7756 15.83467757  2026
STARLINK-4210           
1 52874U 22062AW  22178.25001157 -.00766264  00000+0 -37442-2 0  9993
2 52874  53.2176 356.9452 0005758  47.3469 133.2930 15.83435412  2025
